FLOCK 4G-33             
1 62685U 25009CE  26204.25530967  .00006056  00000+0  23924-3 0  9993
2 62685  97.3937 283.7196 0005367 184.4881 175.6310 15.25866557 84306
FLOCK 4H-1              
1 66704U 25276AQ  26204.17276658  .00005712  00000+0  26128-3 0  9997
2 66704  97.4163 277.2951 0002729 153.3838 206.7538 15.20918865 35902
FLOCK 4H-2              
1 66705U 25276AR  26203.48723369  .00007143  00000+0  32337-3 0  9996
2 66705  97.4158 276.6714 0002074 145.3854 214.7517 15.21188827 35802
FLOCK 4H-3              
1 66706U 25276AS  26204.20548145  .00006525  00000+0  30324-3 0  9992
2 66706  97.4225 277.2996 0003158 210.0818 150.0237 15.20314963 35892
FLOCK 4H-4              
1 66707U 25276AT  26204.17681395  .00006578  00000+0  30751-3 0  9996
2 66707  97.4210 277.1347 0003736 216.3143 143.7839 15.20109036 35887
FLOCK 4H-5              
1 66708U 25276AU  26204.23054991  .00006242  00000+0  28480-3 0  9994
2 66708  97.4162 277.3738 0001824 133.0866 227.0523 15.20972197 35919
FLOCK 4H-6              
1 66709U 25276AV  26204.14648627  .00007184  00000+0  33005-3 0  9995
2 66709  97.4210 277.3361 0003314 176.8376 183.2881 15.20677732 35897
FLOCK 4H-7              
1 66710U 25276AW  26204.19525367  .00006547  00000+0  30306-3 0  9990
2 66710  97.4170 277.1344 0001014 216.4597 143.6569 15.20453954 35895
FLOCK 4H-8              
1 66711U 25276AX  26204.18557784  .00006551  00000+0  30229-3 0  9997
2 66711  97.4210 277.2802 0002323 223.0459 137.0595 15.20562498 35896
FLOCK 4H-9              
1 66712U 25276AY  26204.19779917  .00007187  00000+0  32835-3 0  9994
2 66712  97.4198 277.3893 0003234 182.8638 177.2580 15.20867895 35907
FLOCK 4H-10             
1 66713U 25276AZ  26204.16022130  .00006835  00000+0  31821-3 0  9993
2 66713  97.4177 277.0518 0003531 216.3555 143.7441 15.20235394 35881
FLOCK 4H-11             
1 66714U 25276BA  26204.16858454  .00015513  00000+0  65241-3 0  9996
2 66714  97.4181 277.6923 0002221 206.4692 153.6432 15.23487777 35922
FLOCK 4H-12             
1 66715U 25276BB  26204.11891394  .00007101  00000+0  32426-3 0  9995
2 66715  97.4173 277.2455 0002666 160.6462 199.4876 15.20893908 36205
FLOCK 4H-13             
1 66716U 25276BC  26204.15479635  .00006168  00000+0  28133-3 0  9992
2 66716  97.4207 277.4587 0002440 133.8787 226.2651 15.20985621 35904
FLOCK 4H-14             
1 66717U 25276BD  26204.17867254  .00006668  00000+0  29988-3 0  9997
2 66717  97.4190 277.5324 0002304 132.6736 227.4694 15.21440186 35167
FLOCK 4H-15             
1 66718U 25276BE  26204.19565564  .00006468  00000+0  30376-3 0  9990
2 66718  97.4201 277.0911 0003042 231.5975 128.4987 15.19955546 35884
