{"fetched_at":"2026-07-23T17:55:10.095Z","source":"https://celestrak.org/NORAD/elements/gp.php?GROUP=planet&FORMAT=JSON","constellation":"superdove","records":[{"OBJECT_NAME":"FLOCK 4G-33","OBJECT_ID":"2025-009CE","EPOCH":"2026-07-23T06:07:38.755488","CLASSIFICATION_TYPE":"U","MEAN_MOTION":15.25866557,"ECCENTRICITY":0.00053679,"INCLINATION":97.3937,"RA_OF_ASC_NODE":283.7196,"ARG_OF_PERICENTER":184.4881,"MEAN_ANOMALY":175.631,"EPHEMERIS_TYPE":0,"NORAD_CAT_ID":62685,"ELEMENT_SET_NO":999,"REV_AT_EPOCH":8430,"BSTAR":0.00023923519,"MEAN_MOTION_DOT":0.00006056,"MEAN_MOTION_DDOT":0},{"OBJECT_NAME":"FLOCK 4H-1","OBJECT_ID":"2025-276AQ","EPOCH":"2026-07-23T04:08:47.032512","CLASSIFICATION_TYPE":"U","MEAN_MOTION":15.20918865,"ECCENTRICITY":0.00027297,"INCLINATION":97.4163,"RA_OF_ASC_NODE":277.2951,"ARG_OF_PERICENTER":153.3838,"MEAN_ANOMALY":206.7538,"EPHEMERIS_TYPE":0,"NORAD_CAT_ID":66704,"ELEMENT_SET_NO":999,"REV_AT_EPOCH":3590,"BSTAR":0.00026127947,"MEAN_MOTION_DOT":0.00005712,"MEAN_MOTION_DDOT":0},{"OBJECT_NAME":"FLOCK 4H-2","OBJECT_ID":"2025-276AR","EPOCH":"2026-07-22T11:41:36.990816","CLASSIFICATION_TYPE":"U","MEAN_MOTION":15.21188827,"ECCENTRICITY":0.0002074,"INCLINATION":97.4158,"RA_OF_ASC_NODE":276.6714,"ARG_OF_PERICENTER":145.3854,"MEAN_ANOMALY":214.7517,"EPHEMERIS_TYPE":0,"NORAD_CAT_ID":66705,"ELEMENT_SET_NO":999,"REV_AT_EPOCH":3580,"BSTAR":0.00032336741,"MEAN_MOTION_DOT":0.00007143,"MEAN_MOTION_DDOT":0},{"OBJECT_NAME":"FLOCK 4H-3","OBJECT_ID":"2025-276AS","EPOCH":"2026-07-23T04:55:53.597280","CLASSIFICATION_TYPE":"U","MEAN_MOTION":15.20314963,"ECCENTRICITY":0.00031581,"INCLINATION":97.4225,"RA_OF_ASC_NODE":277.2996,"ARG_OF_PERICENTER":210.0818,"MEAN_ANOMALY":150.0237,"EPHEMERIS_TYPE":0,"NORAD_CAT_ID":66706,"ELEMENT_SET_NO":999,"REV_AT_EPOCH":3589,"BSTAR":0.00030324498,"MEAN_MOTION_DOT":0.00006525,"MEAN_MOTION_DDOT":0},{"OBJECT_NAME":"FLOCK 4H-4","OBJECT_ID":"2025-276AT","EPOCH":"2026-07-23T04:14:36.725280","CLASSIFICATION_TYPE":"U","MEAN_MOTION":15.20109036,"ECCENTRICITY":0.00037362,"INCLINATION":97.421,"RA_OF_ASC_NODE":277.1347,"ARG_OF_PERICENTER":216.3143,"MEAN_ANOMALY":143.7839,"EPHEMERIS_TYPE":0,"NORAD_CAT_ID":66707,"ELEMENT_SET_NO":999,"REV_AT_EPOCH":3588,"BSTAR":0.00030750975,"MEAN_MOTION_DOT":0.00006578,"MEAN_MOTION_DDOT":0},{"OBJECT_NAME":"FLOCK 4H-5","OBJECT_ID":"2025-276AU","EPOCH":"2026-07-23T05:31:59.512224","CLASSIFICATION_TYPE":"U","MEAN_MOTION":15.20972197,"ECCENTRICITY":0.00018245,"INCLINATION":97.4162,"RA_OF_ASC_NODE":277.3738,"ARG_OF_PERICENTER":133.0866,"MEAN_ANOMALY":227.0523,"EPHEMERIS_TYPE":0,"NORAD_CAT_ID":66708,"ELEMENT_SET_NO":999,"REV_AT_EPOCH":3591,"BSTAR":0.00028479739,"MEAN_MOTION_DOT":0.00006242,"MEAN_MOTION_DDOT":0},{"OBJECT_NAME":"FLOCK 4H-6","OBJECT_ID":"2025-276AV","EPOCH":"2026-07-23T03:30:56.413728","CLASSIFICATION_TYPE":"U","MEAN_MOTION":15.20677732,"ECCENTRICITY":0.00033146,"INCLINATION":97.421,"RA_OF_ASC_NODE":277.3361,"ARG_OF_PERICENTER":176.8376,"MEAN_ANOMALY":183.2881,"EPHEMERIS_TYPE":0,"NORAD_CAT_ID":66709,"ELEMENT_SET_NO":999,"REV_AT_EPOCH":3589,"BSTAR":0.00033005402,"MEAN_MOTION_DOT":0.00007184,"MEAN_MOTION_DDOT":0},{"OBJECT_NAME":"FLOCK 4H-7","OBJECT_ID":"2025-276AW","EPOCH":"2026-07-23T04:41:09.917088","CLASSIFICATION_TYPE":"U","MEAN_MOTION":15.20453954,"ECCENTRICITY":0.00010142,"INCLINATION":97.417,"RA_OF_ASC_NODE":277.1344,"ARG_OF_PERICENTER":216.4597,"MEAN_ANOMALY":143.6569,"EPHEMERIS_TYPE":0,"NORAD_CAT_ID":66710,"ELEMENT_SET_NO":999,"REV_AT_EPOCH":3589,"BSTAR":0.00030305842,"MEAN_MOTION_DOT":0.00006547,"MEAN_MOTION_DDOT":0},{"OBJECT_NAME":"FLOCK 4H-8","OBJECT_ID":"2025-276AX","EPOCH":"2026-07-23T04:27:13.925376","CLASSIFICATION_TYPE":"U","MEAN_MOTION":15.20562498,"ECCENTRICITY":0.00023231,"INCLINATION":97.421,"RA_OF_ASC_NODE":277.2802,"ARG_OF_PERICENTER":223.0459,"MEAN_ANOMALY":137.0595,"EPHEMERIS_TYPE":0,"NORAD_CAT_ID":66711,"ELEMENT_SET_NO":999,"REV_AT_EPOCH":3589,"BSTAR":0.00030228893,"MEAN_MOTION_DOT":0.00006551,"MEAN_MOTION_DDOT":0},{"OBJECT_NAME":"FLOCK 4H-9","OBJECT_ID":"2025-276AY","EPOCH":"2026-07-23T04:44:49.848288","CLASSIFICATION_TYPE":"U","MEAN_MOTION":15.20867895,"ECCENTRICITY":0.00032345,"INCLINATION":97.4198,"RA_OF_ASC_NODE":277.3893,"ARG_OF_PERICENTER":182.8638,"MEAN_ANOMALY":177.258,"EPHEMERIS_TYPE":0,"NORAD_CAT_ID":66712,"ELEMENT_SET_NO":999,"REV_AT_EPOCH":3590,"BSTAR":0.00032835461,"MEAN_MOTION_DOT":0.00007187,"MEAN_MOTION_DDOT":0},{"OBJECT_NAME":"FLOCK 4H-10","OBJECT_ID":"2025-276AZ","EPOCH":"2026-07-23T03:50:43.120320","CLASSIFICATION_TYPE":"U","MEAN_MOTION":15.20235394,"ECCENTRICITY":0.00035317,"INCLINATION":97.4177,"RA_OF_ASC_NODE":277.0518,"ARG_OF_PERICENTER":216.3555,"MEAN_ANOMALY":143.7441,"EPHEMERIS_TYPE":0,"NORAD_CAT_ID":66713,"ELEMENT_SET_NO":999,"REV_AT_EPOCH":3588,"BSTAR":0.00031820653,"MEAN_MOTION_DOT":0.00006835,"MEAN_MOTION_DDOT":0},{"OBJECT_NAME":"FLOCK 4H-11","OBJECT_ID":"2025-276BA","EPOCH":"2026-07-23T04:02:45.704256","CLASSIFICATION_TYPE":"U","MEAN_MOTION":15.23487777,"ECCENTRICITY":0.00022212,"INCLINATION":97.4181,"RA_OF_ASC_NODE":277.6923,"ARG_OF_PERICENTER":206.4692,"MEAN_ANOMALY":153.6432,"EPHEMERIS_TYPE":0,"NORAD_CAT_ID":66714,"ELEMENT_SET_NO":999,"REV_AT_EPOCH":3592,"BSTAR":0.00065241098,"MEAN_MOTION_DOT":0.00015513,"MEAN_MOTION_DDOT":0},{"OBJECT_NAME":"FLOCK 4H-12","OBJECT_ID":"2025-276BB","EPOCH":"2026-07-23T02:51:14.164416","CLASSIFICATION_TYPE":"U","MEAN_MOTION":15.20893908,"ECCENTRICITY":0.00026666,"INCLINATION":97.4173,"RA_OF_ASC_NODE":277.2455,"ARG_OF_PERICENTER":160.6462,"MEAN_ANOMALY":199.4876,"EPHEMERIS_TYPE":0,"NORAD_CAT_ID":66715,"ELEMENT_SET_NO":999,"REV_AT_EPOCH":3620,"BSTAR":0.00032426422,"MEAN_MOTION_DOT":0.00007101,"MEAN_MOTION_DDOT":0},{"OBJECT_NAME":"FLOCK 4H-13","OBJECT_ID":"2025-276BC","EPOCH":"2026-07-23T03:42:54.404640","CLASSIFICATION_TYPE":"U","MEAN_MOTION":15.20985621,"ECCENTRICITY":0.00024406,"INCLINATION":97.4207,"RA_OF_ASC_NODE":277.4587,"ARG_OF_PERICENTER":133.8787,"MEAN_ANOMALY":226.2651,"EPHEMERIS_TYPE":0,"NORAD_CAT_ID":66716,"ELEMENT_SET_NO":999,"REV_AT_EPOCH":3590,"BSTAR":0.00028132887,"MEAN_MOTION_DOT":0.00006168,"MEAN_MOTION_DDOT":0},{"OBJECT_NAME":"FLOCK 4H-14","OBJECT_ID":"2025-276BD","EPOCH":"2026-07-23T04:17:17.307456","CLASSIFICATION_TYPE":"U","MEAN_MOTION":15.21440186,"ECCENTRICITY":0.00023049,"INCLINATION":97.419,"RA_OF_ASC_NODE":277.5324,"ARG_OF_PERICENTER":132.6736,"MEAN_ANOMALY":227.4694,"EPHEMERIS_TYPE":0,"NORAD_CAT_ID":66717,"ELEMENT_SET_NO":999,"REV_AT_EPOCH":3516,"BSTAR":0.00029988077,"MEAN_MOTION_DOT":0.00006668,"MEAN_MOTION_DDOT":0},{"OBJECT_NAME":"FLOCK 4H-15","OBJECT_ID":"2025-276BE","EPOCH":"2026-07-23T04:41:44.647296","CLASSIFICATION_TYPE":"U","MEAN_MOTION":15.19955546,"ECCENTRICITY":0.00030425,"INCLINATION":97.4201,"RA_OF_ASC_NODE":277.0911,"ARG_OF_PERICENTER":231.5975,"MEAN_ANOMALY":128.4987,"EPHEMERIS_TYPE":0,"NORAD_CAT_ID":66718,"ELEMENT_SET_NO":999,"REV_AT_EPOCH":3588,"BSTAR":0.00030375505,"MEAN_MOTION_DOT":0.00006468,"MEAN_MOTION_DDOT":0}]}
